
STARLINK-31777          
1 59619U 24080U   24330.63072852 -.00001256  00000+0 -22806-4 0  9996
2 59619  43.0011 185.2962 0001863 266.4067  93.6576 15.40685311 33807
STARLINK-31771          
1 59620U 24080V   24330.65187036  .00000836  00000+0  24337-4 0  9993
2 59620  43.0006 181.9714 0001442 253.4651 106.6048 15.44438616 32625
STARLINK-31758          
1 59621U 24080W   24331.00412858  .00001054  00000+0  32488-4 0  9996
2 59621  42.9992 183.8071 0002583 257.0873 102.9695 15.40705734 33800
STARLINK-31774          
1 59622U 24080X   24330.93481777  .00007616  00000+0  18933-3 0  9992
2 59622  42.9982 184.1523 0000873  15.7418 344.3466 15.40709417 33844
STARLINK-31763          
1 59623U 24080Y   24330.96604722  .00004830  00000+0  12279-3 0  9995
2 59623  43.0016 183.5107 0001491 249.7459 110.3237 15.40708558 33849
SZ-17 MODULE            
1 59624U 23164C   24330.94264204  .00333863  54378-4  57751-3 0  9990
2 59624  41.4655 154.3918 0014105 315.4364  44.5355 16.01257659 33083
LEGION 1                
1 59625U 24081A   24330.82991763  .00014190  00000+0  71166-3 0  9997
2 59625  97.5604  41.6663 0008349 190.1896 169.9170 15.17416758 31387
LEGION 2                
1 59626U 24081B   24331.19163769  .00012934  00000+0  64946-3 0  9998
2 59626  97.5608  42.1056 0005563 236.5821 123.4880 15.17412776 31448
STARLINK-31749          
1 59631U 24082A   24330.86383145 -.00000547  00000+0 -58115-5 0  9992
2 59631  43.0020 277.6676 0001499 288.5708  71.4986 15.40761698 32712
STARLINK-31781          
1 59632U 24082B   24331.17385721  .00007220  00000+0  18001-3 0  9991
2 59632  43.0023 261.5320 0001673 283.3643  76.7027 15.40689120 33184
STARLINK-31541          
1 59633U 24082C   24329.92489912  .00000327  00000+0  15078-4 0  9992
2 59633  43.0009 282.6526 0001177 226.9981 133.0777 15.40701461 33056
STARLINK-31797          
1 59634U 24082D   24330.26249753 -.00001778  00000+0 -35316-4 0  9999
2 59634  43.0036 280.8932 0001632 298.0268  62.0423 15.40688021 32944
STARLINK-31798          
1 59635U 24082E   24330.23336888 -.00001727  00000+0 -34069-4 0  9991
2 59635  43.0033 280.6679 0001859 265.3440  94.7204 15.40699872 32909
STARLINK-31802          
1 59636U 24082F   24330.89060621  .00013637  00000+0  33365-3 0  9991
2 59636  43.0075 277.0061 0002224 312.8022  47.2647 15.40652949 33002
STARLINK-31791          
1 59637U 24082G   24330.98455659  .00004429  00000+0  11318-3 0  9994
2 59637  42.9980 276.8494 0002513 304.3895  55.6724 15.40716637 33013
STARLINK-31727          
1 59638U 24082H   24329.25197905 -.00002182  00000+0 -44992-4 0  9991
2 59638  42.9999 286.2012 0001022 260.0130 100.0611 15.40695527 32809
STARLINK-31807          
1 59639U 24082J   24330.88611922  .00003536  00000+0  91823-4 0  9990
2 59639  43.0070 276.9641 0002781 281.4060  78.6484 15.40718698 32991
STARLINK-31806          
1 59640U 24082K   24330.25577015  .00002401  00000+0  64722-4 0  9995
2 59640  43.0007 280.8365 0001087 225.3522 134.7246 15.40695675 32908
STARLINK-31804          
1 59641U 24082L   24330.98903290  .00006624  00000+0  16557-3 0  9997
2 59641  43.0010 276.8843 0001595 265.7987  94.2687 15.40721840 33012
STARLINK-31660          
1 59642U 24082M   24330.91668981  .00185901  00000+0  39132-2 0  9995
2 59642  43.0002 264.8190 0003738 224.5450 143.8596 15.43857052  5753
STARLINK-31800          
1 59643U 24082N   24330.23098634 -.00000867  00000+0 -13499-4 0  9992
2 59643  43.0035 279.7620 0001664 263.7782  96.2885 15.40699767 33018
STARLINK-31789          
1 59644U 24082P   24330.26698198  .00013500  00000+0  32936-3 0  9999
2 59644  43.0028 280.9201 0001469 253.5358 106.5338 15.40746485 33107
STARLINK-31795          
1 59645U 24082Q   24330.91668981  .00166491  00000+0  16329-2 0  9994
2 59645  42.9977 261.7925 0019964 193.7702 336.7074 15.64541182  5933
STARLINK-31796          
1 59646U 24082R   24330.19543568 -.00002233  00000+0 -46215-4 0  9992
2 59646  43.0023 281.2393 0002702 255.4029 104.6528 15.40676040 33050
STARLINK-31801          
1 59647U 24082S   24330.93973935  .00001631  00000+0  46278-4 0  9998
2 59647  43.0010 276.5019 0001132 338.1998  21.8810 15.40715662 33068
STARLINK-31790          
1 59648U 24082T   24329.19756324 -.00168918  00000+0 -41698-2 0  9999
2 59648  43.0059 243.7791 0001593 290.5160  69.5526 15.40385527 33211
STARLINK-31803          
1 59649U 24082U   24330.18755651  .00077783  00000+0  13164-2 0  9997
2 59649  42.9982 278.5569 0008467 180.9712 179.1133 15.50589330 32979
STARLINK-31787          
1 59650U 24082V   24330.25799932  .00011903  00000+0  29239-3 0  9990
2 59650  43.0026 280.8536 0001445 250.3687 109.7013 15.40634659 33100
STARLINK-31277          
1 59651U 24082W   24329.92938776 -.00000344  00000+0 -96296-6 0  9993
2 59651  43.0014 282.6846 0001172 266.8607  93.2115 15.40696182 33056
STARLINK-31799          
1 59652U 24082X   24330.88388746  .00013048  00000+0  31911-3 0  9990
2 59652  43.0035 276.9457 0002132 285.1047  74.9574 15.40696268 33053
STARLINK-31764          
1 59653U 24082Y   24328.32433625 -.00012692  00000+0 -29692-3 0  9993
2 59653  42.9995 292.1403 0002397 242.2753 117.7861 15.40711996 32802
STARLINK-31589          
1 59654U 24084A   24329.91188081 -.00000417  00000+0 -27096-5 0  9995
2 59654  42.9996 183.7836 0002589 251.5691 108.4884 15.40695719 32442
STARLINK-31665          
1 59655U 24084B   24330.57583614  .00000339  00000+0  15412-4 0  9990
2 59655  43.0038 180.1646 0003439 242.4752 117.5756 15.40701086 32493
STARLINK-31912          
1 59656U 24084C   24330.93567791 -.00008465  00000+0 -19526-3 0  9998
2 59656  43.0022 177.7054 0002540 291.9207  68.1380 15.40747799 32550
STARLINK-31904          
1 59657U 24084D   24330.01913494  .00000668  00000+0  23261-4 0  9990
2 59657  43.0012 182.8633 0001456 288.2778  71.7920 15.40701632 32441
STARLINK-31858          
1 59658U 24084E   24330.62952269 -.00009896  00000+0 -23050-3 0  9990
2 59658  43.0008 179.7076 0001190 224.8152 135.2608 15.40629304 32501
STARLINK-31881          
1 59659U 24084F   24330.97601353 -.00001148  00000+0 -20208-4 0  9999
2 59659  43.0008 178.0124 0001550 261.4623  98.6058 15.40716893 32554
STARLINK-31885          
1 59660U 24084G   24330.63395435  .00001067  00000+0  32815-4 0  9990
2 59660  43.0015 179.7442 0001848 274.0024  86.0621 15.40704847 32531
STARLINK-31880          
1 59661U 24084H   24330.96929443  .00000183  00000+0  11664-4 0  9996
2 59661  43.0042 177.9600 0001983 269.3390  90.7239 15.40701418 32551
STARLINK-31886          
1 59662U 24084J   24330.62045020  .00010198  00000+0  25049-3 0  9998
2 59662  43.0034 179.6359 0001689 298.0666  62.0020 15.40770297 32507
STARLINK-31909          
1 59663U 24084K   24330.92001509  .00001336  00000+0  39243-4 0  9992
2 59663  42.9954 177.6356 0001622 280.0066  80.0607 15.40706934 32557
STARLINK-31910          
1 59664U 24084L   24327.98928285 -.00000125  00000+0  42780-5 0  9991
2 59664  43.0027 194.2827 0001436 277.4194  82.6499 15.40698779 32132
STARLINK-31902          
1 59666U 24084N   24330.61602865  .00001151  00000+0  34802-4 0  9994
2 59666  43.0000 179.5979 0001633 259.2514 100.8158 15.40704466 32509
STARLINK-31913          
1 59667U 24084P   24327.99166046  .00000439  00000+0  17770-4 0  9991
2 59667  43.0022 195.1694 0001550 256.9934 103.0749 15.40700180 32094
STARLINK-31866          
1 59668U 24084Q   24330.98035627 -.00001262  00000+0 -22922-4 0  9997
2 59668  43.0016 177.1664 0001744 276.5524  83.5134 15.40714982 32638
STARLINK-31917          
1 59669U 24084R   24330.60035935  .00005762  00000+0  14496-3 0  9992
2 59669  43.0033 179.4789 0002207 272.8968  87.1636 15.40731757 32509
STARLINK-31860          
1 59670U 24084S   24330.63619416 -.00001125  00000+0 -19642-4 0  9999
2 59670  43.0010 179.7537 0002216 268.7371  91.3232 15.40707779 32519
STARLINK-31854          
1 59671U 24084T   24330.62118643  .00028463  00000+0  67056-3 0  9998
2 59671  43.0022 178.8001 0002818 297.9219  62.1352 15.41389291 32517
STARLINK-31842          
1 59672U 24084U   24330.63170977  .00000515  00000+0  19600-4 0  9999
2 59672  43.0038 179.7175 0002290 257.1601 102.8999 15.40703295 32505
STARLINK-31871          
1 59673U 24084V   24330.91327986  .00005262  00000+0  13312-3 0  9992
2 59673  43.0019 177.5218 0001457 267.7270  92.3420 15.40707704 32637
STARLINK-31875          
1 59674U 24084W   24329.99462493  .00000651  00000+0  22857-4 0  9994
2 59674  43.0008 183.5401 0001457 278.1531  81.9160 15.40703308 32432
STARLINK-31877          
1 59675U 24084X   24329.95654716  .00000606  00000+0  21780-4 0  9996
2 59675  42.9983 183.2442 0001610 263.5729  96.4944 15.40699602 32435
STARLINK-31884          
1 59676U 24084Y   24329.62120410  .00002238  00000+0  60828-4 0  9999
2 59676  43.0016 185.0536 0001689 261.1086  98.9579 15.40697412 32422
2024-085B               
1 59678U 24085B   24331.14642602  .00038410  00000+0  14015-2 0  9990
2 59678  97.3946  43.4298 0010606 277.1052  82.8981 15.27987671 30914
2024-085C               
1 59679U 24085C   24331.16883575  .00021441  00000+0  81364-3 0  9997
2 59679  97.3904  43.1153 0011991 277.1563  82.8312 15.26800016 30904
2024-085D               
1 59680U 24085D   24331.17233381  .00025202  00000+0  99290-3 0  9990
2 59680  97.3878  42.7801 0009634 227.3814 132.6612 15.25541830 30887
2024-085E               
1 59681U 24085E   24330.95813466  .00037105  00000+0  78198-3 0  9993
2 59681  97.3576  46.5111 0046094 346.2695  13.7296 15.43994968 31161
STARLINK-32108          
1 59682U 24086A   24330.94274233  .00005266  00000+0  13331-3 0  9998
2 59682  43.0022 199.1909 0001573 274.4305  85.6372 15.40686208 32200
